APRIZESAT 2             
1 28366U 04025A   26193.26403839  .00000115  00000+0  48689-4 0  9997
2 28366  98.1037 357.8275 0105732 173.6918 186.5630 14.38046788155240
SAUDICOMSAT 1           
1 28369U 04025D   26192.48970258  .00000175  00000+0  51431-4 0  9992
2 28369  98.5776 203.2774 0031139 310.6222  49.2266 14.55491991167663
SAUDICOMSAT 2           
1 28370U 04025E   26192.55339693  .00000103  00000+0  38711-4 0  9991
2 28370  98.6642 205.4885 0055383 184.7154 175.3525 14.49993257163633
APRIZESAT 1             
1 28372U 04025G   26192.55490248  .00000137  00000+0  45608-4 0  9997
2 28372  98.6308 203.9438 0045811  81.4406 279.1975 14.51790724165449
NANOSAT-1               
1 28493U 04049B   26193.24869085  .00000528  00000+0  76806-4 0  9991
2 28493  98.2305 330.5272 0003551 193.9666 166.1448 14.80207437159158
SAUDICOMSAT 7           
1 31119U 07012C   26193.15980089  .00000268  00000+0  57071-4 0  9995
2 31119  98.3795 167.8048 0056871 117.5919 243.1076 14.66134783 26095
SAUDICOMSAT 6           
1 31121U 07012E   26192.85578718  .00000202  00000+0  48827-4 0  9993
2 31121  98.4114 160.8339 0070422 249.6899 109.6724 14.62582926 23794
SAUDICOMSAT 5           
1 31124U 07012H   26193.16640936  .00000358  00000+0  70366-4 0  9998
2 31124  98.3507 168.5534 0048408  48.2051 312.3273 14.68189859 27268
SAUDICOMSAT 3           
1 31125U 07012J   26192.87946205  .00000433  00000+0  78991-4 0  9990
2 31125  98.3161 168.8072 0038494 335.8864  24.0538 14.70746738 28457
SAUDICOMSAT 4           
1 31127U 07012L   26192.88737533  .00000213  00000+0  48959-4 0  9992
2 31127  98.4001 165.9639 0063315 180.0667 180.0537 14.64533726 24903
APRIZESAT 4             
1 35684U 09041D   26193.00425065  .00000360  00000+0  49734-4 0  9992
2 35684  98.1404 268.8187 0042069 240.1403 119.5627 14.83911189915044
APRIZESAT 3             
1 35686U 09041F   26193.24329515  .00001052  00000+0  95583-4 0  9995
2 35686  98.2092 347.6723 0060977 345.6704  14.2784 14.96304910920127
S-NET D                 
1 43186U 18014G   26193.13487016  .00002829  00000+0  14700-3 0  9992
2 43186  97.5341  97.7709 0006396 298.1632  61.8955 15.16900810462543
S-NET B                 
1 43187U 18014H   26193.14681325  .00003058  00000+0  15871-3 0  9998
2 43187  97.5346  97.7699 0006968 292.1595  67.8899 15.16870908462541
S-NET A                 
1 43188U 18014J   26193.19957499  .00002797  00000+0  14535-3 0  9997
2 43188  97.5356  98.0361 0006889 292.7039  67.3465 15.16909664462551
S-NET C                 
1 43189U 18014K   26193.15082168  .00002892  00000+0  15033-3 0  9996
2 43189  97.5373  98.0660 0008144 283.2635  76.7689 15.16861734461091
SALSAT                  
1 46495U 20068K   26192.54062004  .00004447  00000+0  15528-3 0  9997
2 46495  97.8855 197.0941 0008823 206.5203 153.5586 15.30139435319080
OOV-CUBE (TUBSAT-30)    
1 60240U 24128F   26193.00684618  .00001128  00000+0  97999-4 0  9991
2 60240  61.9937 139.0215 0041539 139.3002 221.1206 15.02865918109841
LPNTSAT-001 (IOD-1)     
1 68408U 26065A   26192.91809318  .00001406  00000+0  70972-4 0  9993
2 68408  97.3991  72.9026 0014638 279.1715  80.7864 15.18659053 16010
CHUANG XIN 26 (CX-26)   
1 69972U 26158A   26192.48090097 -.00000088  00000+0  30360-4 0  9994
2 69972  49.9853 296.0945 0004896 288.4346  71.6034 14.25145244   171
